IRIDIUM 166             
1 43570U 18061B   25212.91799077  .00000002  00000+0 -62497-5 0  9991
2 43570  86.4004 190.5576 0002058  93.6214 266.5218 14.34217379367496
IRIDIUM 158             
1 43571U 18061C   25212.95604651  .00000080  00000+0  21421-4 0  9995
2 43571  86.3999 190.5513 0002159  84.4817 275.6625 14.34217671367464
IRIDIUM 165             
1 43572U 18061D   25212.91164859  .00000136  00000+0  41609-4 0  9995
2 43572  86.4001 190.6097 0002348  90.8555 269.2910 14.34217873367480
IRIDIUM 155             
1 43573U 18061E   25212.94336036  .00000068  00000+0  17299-4 0  9999
2 43573  86.3998 190.4819 0001965  86.8380 273.3041 14.34218169367457
IRIDIUM 154             
1 43574U 18061F   25212.92433156  .00000097  00000+0  27718-4 0  9998
2 43574  86.4001 190.6074 0002299  87.5971 272.5488 14.34217133367506
IRIDIUM 163             
1 43575U 18061G   25212.90531445  .00000279  00000+0  92425-4 0  9996
2 43575  86.3999 190.5409 0002279  83.0597 277.0858 14.34218466367473
IRIDIUM 156             
1 43576U 18061H   25212.94970400 -.00000020  00000+0 -14079-4 0  9994
2 43576  86.4002 190.5294 0001831  91.5121 268.6285 14.34217326367476
IRIDIUM 164             
1 43577U 18061J   25212.86090766  .00000046  00000+0  92707-5 0  9995
2 43577  86.4000 190.6014 0002365  92.4417 267.7049 14.34217397367507
